OBJECT_NAME,OBJECT_ID,EPOCH,MEAN_MOTION,ECCENTRICITY,INCLINATION,RA_OF_ASC_NODE,ARG_OF_PERICENTER,MEAN_ANOMALY,EPHEMERIS_TYPE,CLASSIFICATION_TYPE,NORAD_CAT_ID,ELEMENT_SET_NO,REV_AT_EPOCH,BSTAR,MEAN_MOTION_DOT,MEAN_MOTION_DDOT
IONOSFERA-M 2,2024-199B,2026-07-14T14:02:03.334848,14.22762419,.00004792,98.7134,68.3735,122.9519,237.1706,0,U,61736,999,13472,.31465243E-4,.27E-6,0
PRSC-EO1,2025-012A,2026-07-14T14:52:13.516032,15.17616178,.00067261,97.4219,267.5417,148.1313,212.0329,0,U,62725,999,8235,.19491261E-3,.3855E-4,0
BIOMASS,2025-090A,2026-07-14T12:19:40.319904,14.67537026,.00014457,98.0749,22.4296,96.9209,263.2160,0,U,63772,999,6469,.56506881E-4,.272E-5,0
GOSAT-GW (IBUKI GW),2025-141A,2026-07-14T14:22:41.904768,14.67553830,.00014401,98.0565,132.4707,84.2706,275.8663,0,U,64694,999,5586,.8717044E-5,.2E-7,0
IONOSFERA-M 3,2025-155A,2026-07-14T15:02:52.634112,14.21490744,.00022753,98.6039,156.8436,113.3641,246.7776,0,U,64876,999,5030,.20042558E-4,.1E-7,0
IONOSFERA-M 4,2025-155B,2026-07-14T14:11:37.310784,14.21493180,.00018188,98.6038,156.7260,100.4046,259.7337,0,U,64877,999,5029,.18860452E-4,-.2E-7,0
MICROCARB,2025-156A,2026-07-14T04:36:08.462304,14.72884450,.00175451,98.0075,271.9080,173.9140,186.2285,0,U,64899,999,5194,.49194291E-4,.265E-5,0
CO3D 3,2025-156B,2026-07-14T13:40:40.045152,15.20188931,.00017811,97.4338,273.8692,94.1391,266.0048,0,U,64900,999,5369,.11340723E-3,.2387E-4,0
CO3D 4,2025-156C,2026-07-14T13:40:53.712768,15.20207864,.00015925,97.4336,273.8694,155.2747,204.8565,0,U,64901,999,5369,.34292028E-4,.675E-5,0
CO3D 2,2025-156D,2026-07-14T12:52:52.858560,15.20198452,.00012348,97.4338,273.7352,88.6786,271.4590,0,U,64902,999,5368,.10987256E-3,.2311E-4,0
CO3D 1,2025-156E,2026-07-14T12:53:06.139104,15.20198236,.00012792,97.4337,273.7354,100.2756,259.8623,0,U,64903,999,5368,.11092408E-3,.2334E-4,0
PRSC-S1,2025-164A,2026-07-14T12:14:52.256256,15.06631766,.00065823,41.1297,133.9036,193.5737,166.4901,0,U,65055,999,5255,.15997471E-3,.2236E-4,0
SENTINEL-6B,2025-264A,2026-07-14T09:53:52.084896,12.80930155,.00078518,66.0413,78.6326,268.7128,91.2988,0,U,66514,999,3065,.79239841E-4,-.43E-6,0
CAS500-3,2025-274F,2026-07-14T12:15:08.580672,14.88382827,.00062842,97.7438,122.9402,40.1496,320.0184,0,U,66655,999,3421,.6933514E-4,.589E-5,0
CSG-3,2026-001A,2026-07-13T12:40:32.844288,14.82151371,.00015181,97.8894,17.7492,93.3222,266.8165,0,U,67304,999,2836,.2348529E-4,.135E-5,0
PRSC-E03,2026-092A,2026-07-14T13:24:28.152288,15.06807520,.00048684,38.0017,288.2610,247.2680,112.7568,0,U,68835,999,1208,.9166375E-4,.1282E-4,0
CAS500-2,2026-100AK,2026-07-14T14:10:09.067872,15.20897921,.00078524,97.3872,92.9262,294.8319,65.2099,0,U,69013,999,1097,.16567279E-3,.3596E-4,0
