IONOSFERA-M 2           
1 61736U 24199B   26195.58476082  .00000027  00000+0  31465-4 0  9992
2 61736  98.7134  68.3735 0000479 122.9519 237.1706 14.22762419134729
PRSC-EO1                
1 62725U 25012A   26195.61960088  .00003855  00000+0  19491-3 0  9990
2 62725  97.4219 267.5417 0006726 148.1313 212.0329 15.17616178 82350
BIOMASS                 
1 63772U 25090A   26195.51366111  .00000272  00000+0  56507-4 0  9995
2 63772  98.0749  22.4296 0001445  96.9209 263.2160 14.67537026 64694
GOSAT-GW (IBUKI GW)     
1 64694U 25141A   26195.59909612  .00000002  00000+0  87170-5 0  9995
2 64694  98.0565 132.4707 0001440  84.2706 275.8663 14.67553830 55867
IONOSFERA-M 3           
1 64876U 25155A   26195.62699808  .00000001  00000+0  20043-4 0  9993
2 64876  98.6039 156.8436 0002275 113.3641 246.7776 14.21490744 50309
IONOSFERA-M 4           
1 64877U 25155B   26195.59140406 -.00000002  00000+0  18860-4 0  9991
2 64877  98.6038 156.7260 0001818 100.4046 259.7337 14.21493180 50293
MICROCARB               
1 64899U 25156A   26195.19176461  .00000265  00000+0  49194-4 0  9996
2 64899  98.0075 271.9080 0017545 173.9140 186.2285 14.72884450 51945
CO3D 3                  
1 64900U 25156B   26195.56990793  .00002387  00000+0  11341-3 0  9991
2 64900  97.4338 273.8692 0001781  94.1391 266.0048 15.20188931 53693
CO3D 4                  
1 64901U 25156C   26195.57006612  .00000675  00000+0  34292-4 0  9990
2 64901  97.4336 273.8694 0001592 155.2747 204.8565 15.20207864 53699
CO3D 2                  
1 64902U 25156D   26195.53672290  .00002311  00000+0  10987-3 0  9991
2 64902  97.4338 273.7352 0001234  88.6786 271.4590 15.20198452 53686
CO3D 1                  
1 64903U 25156E   26195.53687661  .00002334  00000+0  11092-3 0  9993
2 64903  97.4337 273.7354 0001279 100.2756 259.8623 15.20198236 53682
PRSC-S1                 
1 65055U 25164A   26195.51032704  .00002236  00000+0  15997-3 0  9990
2 65055  41.1297 133.9036 0006582 193.5737 166.4901 15.06631766 52553
SENTINEL-6B             
1 66514U 25264A   26195.41240839 -.00000043  00000+0  79240-4 0  9998
2 66514  66.0413  78.6326 0007851 268.7128  91.2988 12.80930155 30656
CAS500-3                
1 66655U 25274F   26195.51051598  .00000589  00000+0  69335-4 0  9996
2 66655  97.7438 122.9402 0006284  40.1496 320.0184 14.88382827 34211
CSG-3                   
1 67304U 26001A   26194.52815792  .00000135  00000+0  23485-4 0  9994
2 67304  97.8894  17.7492 0001518  93.3222 266.8165 14.82151371 28369
PRSC-E03                
1 68835U 26092A   26195.55865917  .00001282  00000+0  91664-4 0  9990
2 68835  38.0017 288.2610 0004868 247.2680 112.7568 15.06807520 12088
CAS500-2                
1 69013U 26100AK  26195.59038273  .00003596  00000+0  16567-3 0  9998
2 69013  97.3872  92.9262 0007852 294.8319  65.2099 15.20897921 10977
